STARLINK-36292          
1 68509U 26068B   26114.75329821 -.00180023  00000+0 -92424-3 0  9990
2 68509  53.1562 278.4593 0001385   2.3158 357.7871 15.80950967  3951
STARLINK-37260          
1 68510U 26068C   26114.75330697  .00107841  00000+0  54237-3 0  9990
2 68510  53.1560 278.4587 0001419  39.3761 320.7365 15.80902599  3958
STARLINK-37280          
1 68511U 26068D   26114.56289689  .00191356  00000+0  94884-3 0  9990
2 68511  53.1556 279.4045 0000885  76.6314 283.4808 15.80938479  3928
STARLINK-37286          
1 68512U 26068E   26116.91667824  .00072733  00000+0  37001-3 0  9998
2 68512  53.1567 267.6001 0000654  29.9258  57.9831 15.80809883  5562
STARLINK-36250          
1 68513U 26068F   26114.68783514  .00153858  00000+0  76702-3 0  9995
2 68513  53.1563 278.7612 0001027  37.4284 322.6810 15.80935980  3945
STARLINK-37251          
1 68514U 26068G   26116.91667824 -.02460059  00000+0 -27662-1 0  9996
2 68514  53.1589 267.7425 0000687  53.2510 324.2162 15.65414095  5563
STARLINK-36293          
1 68515U 26068H   26112.97941730  .00379916  00000+0  18285-2 0  9999
2 68515  53.1568 287.3051 0001832  44.5246 315.5924 15.81068158  3678
STARLINK-36290          
1 68516U 26068J   26115.33335648  .00119929  00000+0  60450-3 0  9996
2 68516  53.1562 275.4986 0000899  86.6749   2.1580 15.80810153  5268
STARLINK-36298          
1 68517U 26068K   26116.91667824 -.02374260  00000+0 -31636-1 0  9993
2 68517  53.1588 267.8242 0000523  68.7256 268.2025 15.61009369  5510
STARLINK-36857          
1 68518U 26068L   26114.74655410  .00193069  00000+0  95673-3 0  9996
2 68518  53.1565 278.4149 0001226  19.6602 340.4468 15.80947309  3957
STARLINK-36326          
1 68519U 26068M   26114.81051634  .00262997  00000+0  12915-2 0  9997
2 68519  53.1547 278.1060 0001743 201.7550 158.3399 15.80945013  3967
STARLINK-37126          
1 68520U 26068N   26113.67107400  .00295485  00000+0  14409-2 0  9993
2 68520  53.1564 283.7948 0000874 108.1875 251.9243 15.81008306  3783
STARLINK-36347          
1 68521U 26068P   26114.80827372  .00147401  00000+0  73589-3 0  9996
2 68521  53.1572 278.0888 0001052  61.1277 298.9851 15.80925254  3961
STARLINK-36322          
1 68522U 26068Q   26116.91667824 -.02278414  00000+0 -13891-1 0  9996
2 68522  53.1567 267.5121 0001114  47.4812  82.7834 15.79875077  5518
STARLINK-37208          
1 68523U 26068R   26114.55314097  .00242975  00000+0  11945-2 0  9994
2 68523  53.1573 279.3403 0002035 325.6103  34.4788 15.80977313  3920
STARLINK-36302          
1 68524U 26068S   26114.67933463  .00371471  00000+0  17445-2 0  9997
2 68524  53.1574 278.7021 0001227  24.8806 335.2276 15.81622397  3947
